IRIDIUM 144             
1 43249U 18030A   25225.62119744  .00000050  00000+0  10964-4 0  9992
2 43249  86.3918  58.9750 0002182  91.4426 268.7020 14.34217812386052
IRIDIUM 149             
1 43250U 18030B   25225.62753889  .00000034  00000+0  51002-5 0  9999
2 43250  86.3918  58.9428 0002214  91.9700 268.1749 14.34217926386072
IRIDIUM 157             
1 43251U 18030C   25225.57679991  .00000043  00000+0  82680-5 0  9991
2 43251  86.3919  59.0104 0002270  84.4008 275.7446 14.34217614386046
IRIDIUM 140             
1 43252U 18030D   25225.59582621  .00000053  00000+0  11836-4 0  9992
2 43252  86.3919  59.0158 0002068  93.1542 266.9891 14.34217974386103
IRIDIUM 145             
1 43253U 18030E   25225.58314285  .00000050  00000+0  10828-4 0  9998
2 43253  86.3920  58.9940 0002320  98.8867 261.2592 14.34217615386036
IRIDIUM 146             
1 43254U 18030F   25225.56411446  .00000056  00000+0  13070-4 0  9992
2 43254  86.3918  59.0153 0002281  97.9523 262.1931 14.34217801386042
IRIDIUM 148             
1 43255U 18030G   25225.60217088  .00000050  00000+0  10890-4 0  9995
2 43255  86.3920  59.0377 0002343  88.9195 271.2269 14.34217582386083
IRIDIUM 142             
1 43256U 18030H   25225.57045678  .00000045  00000+0  89274-5 0  9993
2 43256  86.3917  58.9511 0002413 100.1884 259.9584 14.34217878386045
